0 DELTA 1 DEB
1 13571U 78026FJ  13281.63245699  .00001259  00000-0  41769-3 0  4474
2 13571 098.2205 309.0404 0023061 027.0789 095.4706 14.39264426683492
0 DELTA 1 DEB
1 13571U 78026FJ  13284.05225625  .00001533  00000-0  50565-3 0  4480
2 13571 098.2202 311.3611 0022906 019.7396 033.3816 14.39274527683849
0 DELTA 1 DEB
1 13571U 78026FJ  13287.03694686  .00001555  00000-0  51287-3 0  4495
2 13571 098.2193 314.2237 0022691 010.5978 018.3996 14.39282316684275
0 DELTA 1 DEB
1 13571U 78026FJ  13289.05282581  .00001787  00000-0  58716-3 0  4509
2 13571 098.2189 316.1568 0022576 004.3994 023.6502 14.39292897684568
0 DELTA 1 DEB
1 13571U 78026FJ  13290.60099573  .00001694  00000-0  55723-3 0  4512
2 13571 098.2190 317.6412 0022454 359.5016 125.6568 14.39298530684788
0 DELTA 1 DEB
1 13571U 78026FJ  13292.04684753  .00001781  00000-0  58504-3 0  4520
2 13571 098.2189 319.0274 0022367 354.8991 057.5528 14.39301874684999
0 DELTA 1 DEB
1 13571U 78026FJ  13293.58983028  .00001933  00000-0  63381-3 0  4536
2 13571 098.2190 320.5068 0022284 350.0828 132.6750 14.39307310685213
0 DELTA 1 DEB
1 13571U 78026FJ  13295.03176731  .00002010  00000-0  65849-3 0  4542
2 13571 098.2189 321.8893 0022240 345.5297 044.2965 14.39312746685420
